sat26017
1 26017U 91068AC  20046.65003865 -.00000002  00000-0 -80312-4 0  9997
2 26017  82.6883 267.6814 0059361 250.5978 164.1008 12.43265750292397
